DIRECTV 10              
1 31862U 07032A   19232.46268250 -.00000107  00000-0  00000+0 0  9990
2 31862   0.0147 267.6683 0000451 324.7749 159.8723  1.00268986 44416
SPACEWAY 3              
1 32018U 07036A   19232.32181068 -.00000156  00000-0  00000+0 0  9998
2 32018   0.0033 300.8749 0000206 297.6731 110.6995  1.00272016 44138
BSAT-3A                 
1 32019U 07036B   19232.50621267 -.00000355  00000-0  00000+0 0  9990
2 32019   0.0520 225.4220 0003374 331.4020  63.8171  1.00273173 44065
INSAT-4CR               
1 32050U 07037A   19232.49382519  .00000120  00000-0  00000+0 0  9997
2 32050   0.6270  96.0595 0005994 144.7840 313.3354  1.00274422 43850
WORLDVIEW-1 (WV-1)      
1 32060U 07041A   19231.90271659  .00000308  00000-0  15437-4 0  9993
2 32060  97.3974 350.7186 0001519  69.8374 290.3027 15.24440762663086
OPTUS D2                
1 32252U 07044A   19232.51457818 -.00000188  00000-0  00000+0 0  9992
2 32252   0.0574 285.5590 0003895 229.8138 150.4276  1.00270843 43449
INTELSAT 11 (IS-11)     
1 32253U 07044B   19231.75788818 -.00000274  00000-0  00000-0 0  9992
2 32253   0.0334 260.4460 0001780 273.3827  23.8256  1.00272566 43605
WGS F1 (USA 195)        
1 32258U 07046A   19232.05478161  .00000036  00000-0  00000+0 0  9994
2 32258   0.0116 128.4026 0001018  57.5309 167.8819  1.00271894 43326
NAVSTAR 60 (USA 196)    
1 32260U 07047A   19231.33767857  .00000029  00000-0  00000+0 0  9993
2 32260  53.1754 183.3543 0114606  45.0318 315.8649  2.00555076 86815
GLOBALSTAR M067         
1 32263U 07048A   19231.92869698 -.00000079  00000-0  13416-3 0  9993
2 32263  51.9727 142.7802 0001062 100.9106 336.6648 12.40585547545549
GLOBALSTAR M070         
1 32264U 07048B   19231.92757870 -.00000105  00000-0 -83226-5 0  9991
2 32264  51.9754 131.5619 0000713 123.3495 316.5745 12.62265283545084
GLOBALSTAR M066         
1 32265U 07048C   19231.65045594 -.00000093  00000-0  61410-4 0  9990
2 32265  51.9698 355.2264 0000514 165.9101 294.7291 12.62229431547257
COSMOS 2433 [GLONASS-M] 
1 32275U 07052A   19231.78251950 -.00000028  00000-0  10000-3 0  9991
2 32275  65.8801  39.0146 0001487 197.3161 191.4768  2.13104372 91964
COSMOS 2432 [GLONASS-M] 
1 32276U 07052B   19232.30352333 -.00000025  00000-0  10000-3 0  9995
2 32276  65.8912  39.0815 0008999 341.7546  37.7000  2.13103678 91978
YAOGAN 3                
1 32289U 07055A   19232.36181572  .00000056  00000-0  14110-4 0  9993
2 32289  98.0021 242.9227 0000993 102.1444 257.9878 14.80970040636274
STAR ONE C1             
1 32293U 07056A   19232.39952316 -.00000281  00000-0  00000+0 0  9993
2 32293   0.0240 111.6577 0002669  52.8109 242.7945  1.00268025 43119
SKYNET 5B               
1 32294U 07056B   19231.83253049  .00000136  00000-0  00000-0 0  9998
2 32294   0.0714  22.7905 0003553 128.9254 140.9522  1.00273341 43197
ASTRA 4A (SIRIUS 4)     
1 32299U 07057A   19231.83201976  .00000026  00000-0  00000-0 0  9994
2 32299   0.0114  99.6479 0002805  53.2099 119.3526  1.00270102 26682
COSMO-SKYMED 2          
1 32376U 07059A   19232.53689787  .00000072  00000-0  15600-4 0  9997
2 32376  97.8915  55.0246 0001396  96.0078 264.1336 14.82150957632854
RADARSAT-2              
1 32382U 07061A   19232.55835434  .00000088  00000-0  51052-4 0  9999
2 32382  98.5760 238.5517 0001183 103.7415   5.5149 14.29985536609821
NAVSTAR 61 (USA 199)    
1 32384U 07062A   19232.11032199 -.00000070  00000-0  00000+0 0  9995
2 32384  56.4827  12.6357 0010014 115.6553 216.8408  2.00560252 85565
HORIZONS 2              
1 32388U 07063B   19232.50124023 -.00000186  00000-0  00000+0 0  9999
2 32388   0.0156 125.6720 0002934  29.2425  78.9182  1.00269492 42883
COSMOS 2434 [GLONASS-M] 
1 32393U 07065A   19232.52757634  .00000027  00000-0  00000+0 0  9992
2 32393  64.6940 276.7829 0002953 148.2043 339.6052  2.13103036 90683
COSMOS 2436 [GLONASS-M] 
1 32395U 07065C   19232.22359493  .00000025  00000-0  10000-3 0  9995
2 32395  64.7033 276.8501 0014587 352.8940 314.3093  2.13104393 90606
THURAYA-3               
1 32404U 08001A   19232.50394455 -.00000305  00000-0  00000+0 0  9992
2 32404   3.7884   4.5738 0004772 144.0824  99.8091  1.00271388 42535
EXPRESS-AM33            
1 32478U 08003A   19232.35993279 -.00000285  00000-0  00000+0 0  9994
2 32478   0.0480 277.7502 0000518 166.5606 110.1440  1.00271124 42614
THOR 5                  
1 32487U 08006A   19232.34056642 -.00000014  00000-0  00000+0 0  9990
2 32487   0.0136 182.4798 0002434 331.9091 295.8398  1.00272336 42187
AMC-14                  
1 32708U 08011A   19232.20064003  .00000083  00000-0  00000+0 0  9992
2 32708  20.4786  51.4903 0039558   8.4745 358.5023  1.00272782 43102
NAVSTAR 62 (USA 201)    
1 32711U 08012A   19231.74415041  .00000040  00000-0  00000+0 0  9990
2 32711  54.7149 249.6691 0132693 221.0802 137.9501  2.00556186 83743
DIRECTV 11              
1 32729U 08013A   19231.60304442 -.00000132  00000-0  00000+0 0  9990
2 32729   0.0032 153.7477 0000236 144.2923 147.5329  1.00272551 41931
ICO G1                  
1 32763U 08016A   19231.53255779 -.00000176  00000-0  00000+0 0  9999
2 32763   3.6225   7.2032 0002230 156.2667 262.9863  1.00272378 41466
VINASAT-1               
1 32767U 08018A   19231.64919221 -.00000334  00000-0  00000+0 0  9992
2 32767   0.0577 289.8286 0002036 233.4795 170.0457  1.00272791 41607
STAR ONE C2             
1 32768U 08018B   19232.47035872 -.00000269  00000-0  00000+0 0  9993
2 32768   0.0191 142.1546 0002989  24.0956 261.5757  1.00271124 41552
TIANLIAN 1-01           
1 32779U 08019A   19232.06961174 -.00000144  00000-0  00000+0 0  9996
2 32779   3.4765  73.5600 0029911 247.9471 111.6721  1.00271151 41475
CARTOSAT-2A             
1 32783U 08021A   19232.39600074 -.00000025  00000-0  37905-5 0  9997
2 32783  97.9674 291.2160 0011749 264.2520  95.7357 14.78657017610505
CUTE-1.7+APD II (CO-65) 
1 32785U 08021C   19232.54689075  .00000110  00000-0  17518-4 0  9995
2 32785  97.5518 229.3034 0014462  58.2421 302.0204 14.88332200613039
AAUSAT-II               
1 32788U 08021F   19232.50871227  .00000493  00000-0  50308-4 0  9994
2 32788  97.4961 245.4591 0011533 357.6780   2.4386 14.94770373614307
DELFI-C3 (DO-64)        
1 32789U 08021G   19231.90002384  .00000612  00000-0  44822-4 0  9995
2 32789  97.4596 279.6752 0010522 272.5872  87.4151 15.07052553616239
SEEDS II (CO-66)        
1 32791U 08021J   19231.58690800  .00000076  00000-0  13032-4 0  9991
2 32791  97.5291 234.4227 0014337  37.5998 322.6220 14.90851468613250
AMOS-3                  
1 32794U 08022A   19231.81690432 -.00000041  00000-0  00000-0 0  9992
2 32794   0.0681 272.9033 0002057 218.4430 126.4806  1.00271099 57372
GALAXY 18 (G-18)        
1 32951U 08024A   19232.45188295  .00000020  00000-0  00000+0 0  9994
2 32951   0.0162 180.4873 0003443 341.6411 206.0332  1.00273116 41097
YUBILEINY (RS-30)       
1 32953U 08025A   19232.42200063  .00000020  00000-0  75656-4 0  9996
2 32953  82.5002 105.7588 0019494 355.0665   5.0222 12.43090763510105
COSMOS 2437             
1 32954U 08025B   19232.44164323  .00000031  00000-0  15299-3 0  9995
2 32954  82.4990 106.9651 0021271   7.1196 353.0182 12.42702113509977
COSMOS 2438             
1 32955U 08025C   19232.12715847  .00000022  00000-0  86262-4 0  9993
2 32955  82.4994 104.2630 0021433 349.5562  10.5083 12.43307671510181
COSMOS 2439             
1 32956U 08025D   19232.47035313  .00000004  00000-0 -41058-4 0  9990
2 32956  82.5047 107.1417 0021216 356.8114   3.2827 12.43008624510103
FENGYUN 3A              
1 32958U 08026A   19232.64156963 -.00000036  00000-0  20932-5 0  9991
2 32958  98.3824 229.4390 0009590 128.1321 343.4024 14.18606036582036
CHINASAT 9 (ZX 9)       
1 33051U 08028A   19231.78484406 -.00000253  00000-0  00000+0 0  9997
2 33051   0.0101 133.7678 0004088  30.2260 178.5896  1.00270578 41003
FGRST (GLAST)           
1 33053U 08029A   19231.70361486  .00000407  00000-0  64860-5 0  9994
2 33053  25.5836   1.9416 0012648 103.2252 256.9695 15.11242083617487
SKYNET 5C               
1 33055U 08030A   19231.76286063 -.00000145  00000-0  00000+0 0  9991
2 33055   0.0601   3.0008 0003927 144.5844  77.0735  1.00271965 40898
TURKSAT 3A              
1 33056U 08030B   19231.77481193  .00000140  00000-0  00000+0 0  9998
2 33056   0.0304  85.0906 0005014  53.0990 150.5518  1.00270924 41083
JASON-2 (OSTM)          
1 33105U 08032A   19232.18751017 -.00000075  00000-0 -48593-4 0  9999
2 33105  66.0386 252.7491 0008507 266.1140 180.8643 12.87626962522810
INTELSAT 25 (IS-25)     
1 33153U 08034A   19232.14090399 -.00000229  00000-0  00000+0 0  9995
2 33153   0.0352 275.5273 0001469 287.6606 144.2173  1.00273280 40642
BADR-6                  
1 33154U 08034B   19232.27409267  .00000140  00000-0  00000+0 0  9999
2 33154   0.0557  46.6070 0004075  69.1187 337.2542  1.00271123 40755
ECHOSTAR 11             
1 33207U 08035A   19232.46233301 -.00000061  00000-0  00000+0 0  9997
2 33207   0.0433 286.1135 0002849 225.1346 233.6965  1.00272722 40662
SUPERBIRD-C2            
1 33274U 08038A   19231.91122476 -.00000257  00000-0  00000-0 0  9991
2 33274   0.0133 131.9600 0001866  35.5672 272.4030  1.00270363 80724
AMC-21                  
1 33275U 08038B   19231.63111972  .00000030  00000-0  00000+0 0  9997
2 33275   0.0587 289.6240 0002838 229.4218 270.9349  1.00272578 40462
INMARSAT 4-F3           
1 33278U 08039A   19232.46477561 -.00000143  00000-0  00000+0 0  9998
2 33278   3.0667  10.0366 0002805 145.2883 242.5021  1.00271228 40271
RAPIDEYE 2              
1 33312U 08040A   19232.40646663 -.00000022  00000-0  35907-5 0  9990
2 33312  97.7405 299.3122 0012769 284.4324  75.5475 14.84651895592871
RAPIDEYE 5              
1 33313U 08040B   19232.49769786  .00000032  00000-0  99422-5 0  9994
2 33313  97.7466 298.3115 0016491 163.7792 196.3956 14.84653470592837
RAPIDEYE 1              
1 33314U 08040C   19232.48622919 -.00000067  00000-0 -14911-5 0  9990
2 33314  97.7470 299.1976 0025641 298.2923  61.5716 14.84649136592879
